TISAT 1                 
1 36799U 10035E   26068.75703561  .00024554  00000+0  91005-3 0  9996
2 36799  98.0645   6.8512 0001343 159.3030 200.8262 15.27628633852505
STARLINK-32524          
1 62159U 24224W   26068.32148355  .00033760  00000+0  12298-2 0  9992
2 62159  43.0033 163.6539 0002452 285.3790  74.6791 15.27603409 72222
