[{"OBJECT_NAME":"TISAT 1","OBJECT_ID":"2010-035E","EPOCH":"2026-03-09T18:10:07.877568","MEAN_MOTION":15.27628633,"ECCENTRICITY":0.00013432,"INCLINATION":98.0645,"RA_OF_ASC_NODE":6.8512,"ARG_OF_PERICENTER":159.303,"MEAN_ANOMALY":200.8262,"EPHEMERIS_TYPE":0,"CLASSIFICATION_TYPE":"U","NORAD_CAT_ID":36799,"ELEMENT_SET_NO":999,"REV_AT_EPOCH":85250,"BSTAR":0.00091004793,"MEAN_MOTION_DOT":0.00024554,"MEAN_MOTION_DDOT":0},{"OBJECT_NAME":"STARLINK-32524","OBJECT_ID":"2024-224W","EPOCH":"2026-03-09T07:42:56.178720","MEAN_MOTION":15.27603409,"ECCENTRICITY":0.00024524,"INCLINATION":43.0033,"RA_OF_ASC_NODE":163.6539,"ARG_OF_PERICENTER":285.379,"MEAN_ANOMALY":74.6791,"EPHEMERIS_TYPE":0,"CLASSIFICATION_TYPE":"U","NORAD_CAT_ID":62159,"ELEMENT_SET_NO":999,"REV_AT_EPOCH":7222,"BSTAR":0.001229806,"MEAN_MOTION_DOT":0.0003376,"MEAN_MOTION_DDOT":0}]
